start=new Date('2021-11-06T00:00:00.000Z').valueOf();
sats=[{"MEAN_ELEMENT_THEORY":"SGP4","INCLINATION":"53.0538","REV_AT_EPOCH":"9084","NORAD_CAT_ID":"45388","MEAN_MOTION":"15.06409241","RA_OF_ASC_NODE":"81.2936","ARG_OF_PERICENTER":"82.6315","PERIOD":"95.592","EPOCH":"2021-11-05T20:06:13.547520","ECCENTRICITY":"0.00010980","TLE_LINE2":"2 45388  53.0538  81.2936 0001098  82.6315 277.4799 15.06409241 90844","OBJECT_TYPE":"PAYLOAD","ELEMENT_SET_NO":"999","EPHEMERIS_TYPE":"0","MEAN_MOTION_DOT":"0.00003125","REF_FRAME":"TEME","MEAN_MOTION_DDOT":"0.0000000000000","MEAN_ANOMALY":"277.4799","FILE":"3204412","RCS_SIZE":"LARGE","BSTAR":"0.00022853000000","CLASSIFICATION_TYPE":"U","PERIAPSIS":"546.425","OBJECT_ID":"2020-019AE","TIME_SYSTEM":"UTC","SITE":"AFETR","COUNTRY_CODE":"US","OBJECT_NAME":"STARLINK-1280","CENTER_NAME":"EARTH","LAUNCH_DATE":"2020-03-18","GP_ID":"189044380","SEMIMAJOR_AXIS":"6925.320","TLE_LINE1":"1 45388U 20019AE  21309.83765680  .00003125  00000-0  22853-3 0  9992","APOAPSIS":"547.946","DECAY_DATE":null},{"RA_OF_ASC_NODE":"61.6741","MEAN_MOTION":"15.06402905","ARG_OF_PERICENTER":"89.4826","PERIOD":"95.592","REV_AT_EPOCH":"9112","NORAD_CAT_ID":"45389","INCLINATION":"53.0541","MEAN_ELEMENT_THEORY":"SGP4","EPHEMERIS_TYPE":"0","MEAN_MOTION_DOT":"0.00001744","REF_FRAME":"TEME","MEAN_MOTION_DDOT":"0.0000000000000","ELEMENT_SET_NO":"999","ECCENTRICITY":"0.00012830","EPOCH":"2021-11-05T18:01:29.995968","TLE_LINE2":"2 45389  53.0541  61.6741 0001283  89.4826 270.6310 15.06402905 91129","OBJECT_TYPE":"PAYLOAD","SITE":"AFETR","COUNTRY_CODE":"US","PERIAPSIS":"546.316","TIME_SYSTEM":"UTC","OBJECT_ID":"2020-019AF","BSTAR":"0.00013596000000","CLASSIFICATION_TYPE":"U","FILE":"3204412","RCS_SIZE":"LARGE","MEAN_ANOMALY":"270.6310","DECAY_DATE":null,"TLE_LINE1":"1 45389U 20019AF  21309.75104162  .00001744  00000-0  13596-3 0  9995","APOAPSIS":"548.093","SEMIMAJOR_AXIS":"6925.340","LAUNCH_DATE":"2020-03-18","GP_ID":"189044607","OBJECT_NAME":"STARLINK-1283","CENTER_NAME":"EARTH"},{"ECCENTRICITY":"0.00011760","EPOCH":"2021-11-05T17:24:19.742400","TLE_LINE2":"2 45390  53.0552  61.8092 0001176  84.0436 276.0687 15.06421831 91118","OBJECT_TYPE":"PAYLOAD","EPHEMERIS_TYPE":"0","MEAN_MOTION_DOT":"0.00002996","MEAN_MOTION_DDOT":"0.0000000000000","REF_FRAME":"TEME","ELEMENT_SET_NO":"999","REV_AT_EPOCH":"9111","NORAD_CAT_ID":"45390","INCLINATION":"53.0552","MEAN_ELEMENT_THEORY":"SGP4","MEAN_MOTION":"15.06421831","RA_OF_ASC_NODE":"61.8092","PERIOD":"95.591","ARG_OF_PERICENTER":"84.0436","LAUNCH_DATE":"2020-03-18","GP_ID":"189043878","OBJECT_NAME":"STARLINK-1284","CENTER_NAME":"EARTH","DECAY_DATE":null,"APOAPSIS":"547.961","TLE_LINE1":"1 45390U 20019AG  21309.72522850  .00002996  00000-0  21978-3 0  9995","SEMIMAJOR_AXIS":"6925.282","BSTAR":"0.00021978000000","CLASSIFICATION_TYPE":"U","RCS_SIZE":"LARGE","FILE":"3204412","MEAN_ANOMALY":"276.0687","SITE":"AFETR","COUNTRY_CODE":"US","PERIAPSIS":"546.332","TIME_SYSTEM":"UTC","OBJECT_ID":"2020-019AG"},{"NORAD_CAT_ID":"45391","REV_AT_EPOCH":"9085","INCLINATION":"53.0557","MEAN_ELEMENT_THEORY":"SGP4","ARG_OF_PERICENTER":"89.7331","PERIOD":"95.592","MEAN_MOTION":"15.06401796","RA_OF_ASC_NODE":"61.4384","OBJECT_TYPE":"PAYLOAD","TLE_LINE2":"2 45391  53.0557  61.4384 0001388  89.7331 270.3817 15.06401796 90855","ECCENTRICITY":"0.00013880","EPOCH":"2021-11-05T19:21:06.676128","MEAN_MOTION_DDOT":"0.0000000000000","REF_FRAME":"TEME","EPHEMERIS_TYPE":"0","MEAN_MOTION_DOT":"0.00000491","ELEMENT_SET_NO":"999","CLASSIFICATION_TYPE":"U","BSTAR":"0.00005187400000","RCS_SIZE":"LARGE","FILE":"3204412","MEAN_ANOMALY":"270.3817","COUNTRY_CODE":"US","SITE":"AFETR","OBJECT_ID":"2020-019AH","TIME_SYSTEM":"UTC","PERIAPSIS":"546.247","GP_ID":"189044120","LAUNCH_DATE":"2020-03-18","CENTER_NAME":"EARTH","OBJECT_NAME":"STARLINK-1289","DECAY_DATE":null,"TLE_LINE1":"1 45391U 20019AH  21309.80632727  .00000491  00000-0  51874-4 0  9997","APOAPSIS":"548.169","SEMIMAJOR_AXIS":"6925.343"},{"RA_OF_ASC_NODE":"57.9098","MEAN_MOTION":"15.08108147","ARG_OF_PERICENTER":"88.4864","PERIOD":"95.484","MEAN_ELEMENT_THEORY":"SGP4","INCLINATION":"52.9944","REV_AT_EPOCH":"9087","NORAD_CAT_ID":"45392","ELEMENT_SET_NO":"999","MEAN_MOTION_DOT":"0.00009959","EPHEMERIS_TYPE":"0","REF_FRAME":"TEME","MEAN_MOTION_DDOT":"0.0000000000000","EPOCH":"2021-11-05T19:52:15.353472","ECCENTRICITY":"0.00022110","TLE_LINE2":"2 45392  52.9944  57.9098 0002211  88.4864 271.6378 15.08108147 90873","OBJECT_TYPE":"PAYLOAD","PERIAPSIS":"540.453","OBJECT_ID":"2020-019AJ","TIME_SYSTEM":"UTC","COUNTRY_CODE":"US","SITE":"AFETR","MEAN_ANOMALY":"271.6378","RCS_SIZE":"LARGE","FILE":"3204412","BSTAR":"0.00065570000000","CLASSIFICATION_TYPE":"U","SEMIMAJOR_AXIS":"6920.118","APOAPSIS":"543.513","TLE_LINE1":"1 45392U 20019AJ  21309.82795548  .00009959  00000-0  65570-3 0  9996","DECAY_DATE":null,"OBJECT_NAME":"STARLINK-1290","CENTER_NAME":"EARTH","LAUNCH_DATE":"2020-03-18","GP_ID":"189044880"},{"CENTER_NAME":"EARTH","OBJECT_NAME":"STARLINK-1291","GP_ID":"189011544","LAUNCH_DATE":"2020-03-18","SEMIMAJOR_AXIS":"6925.266","TLE_LINE1":"1 45393U 20019AK  21309.43773021  .00009550  00000-0  65870-3 0  9996","APOAPSIS":"548.055","DECAY_DATE":null,"MEAN_ANOMALY":"240.4462","RCS_SIZE":"LARGE","FILE":"3203969","CLASSIFICATION_TYPE":"U","BSTAR":"0.00065870000000","TIME_SYSTEM":"UTC","OBJECT_ID":"2020-019AK","PERIAPSIS":"546.207","COUNTRY_CODE":"US","SITE":"AFETR","TLE_LINE2":"2 45393  53.0537  63.0965 0001334 119.6660 240.4462 15.06426959 90837","OBJECT_TYPE":"PAYLOAD","EPOCH":"2021-11-05T10:30:19.890144","ECCENTRICITY":"0.00013340","ELEMENT_SET_NO":"999","REF_FRAME":"TEME","MEAN_MOTION_DDOT":"0.0000000000000","EPHEMERIS_TYPE":"0","MEAN_MOTION_DOT":"0.00009550","MEAN_ELEMENT_THEORY":"SGP4","INCLINATION":"53.0537","NORAD_CAT_ID":"45393","REV_AT_EPOCH":"9083","ARG_OF_PERICENTER":"119.6660","PERIOD":"95.590","MEAN_MOTION":"15.06426959","RA_OF_ASC_NODE":"63.0965"},{"TIME_SYSTEM":"UTC","OBJECT_ID":"2020-019AL","PERIAPSIS":"546.219","SITE":"AFETR","COUNTRY_CODE":"US","FILE":"3204412","RCS_SIZE":"LARGE","MEAN_ANOMALY":"297.3811","CLASSIFICATION_TYPE":"U","BSTAR":"0.00030948000000","TLE_LINE1":"1 45394U 20019AL  21309.79894914  .00004334  00000-0  30948-3 0  9994","APOAPSIS":"548.053","SEMIMAJOR_AXIS":"6925.271","DECAY_DATE":null,"CENTER_NAME":"EARTH","OBJECT_NAME":"STARLINK-1292","GP_ID":"189043379","LAUNCH_DATE":"2020-03-18","ARG_OF_PERICENTER":"62.7313","PERIOD":"95.591","RA_OF_ASC_NODE":"61.4747","MEAN_MOTION":"15.06425190","INCLINATION":"53.0547","MEAN_ELEMENT_THEORY":"SGP4","NORAD_CAT_ID":"45394","REV_AT_EPOCH":"9086","ELEMENT_SET_NO":"999","REF_FRAME":"TEME","MEAN_MOTION_DDOT":"0.0000000000000","MEAN_MOTION_DOT":"0.00004334","EPHEMERIS_TYPE":"0","TLE_LINE2":"2 45394  53.0547  61.4747 0001324  62.7313 297.3811 15.06425190 90869","OBJECT_TYPE":"PAYLOAD","ECCENTRICITY":"0.00013240","EPOCH":"2021-11-05T19:10:29.205696"},{"ELEMENT_SET_NO":"999","MEAN_MOTION_DOT":"0.00002656","EPHEMERIS_TYPE":"0","REF_FRAME":"TEME","MEAN_MOTION_DDOT":"0.0000000000000","EPOCH":"2021-11-05T15:06:19.893024","ECCENTRICITY":"0.00013030","TLE_LINE2":"2 45395  53.0554  62.2404 0001303  77.5118 282.6017 15.06408045 90282","OBJECT_TYPE":"PAYLOAD","RA_OF_ASC_NODE":"62.2404","MEAN_MOTION":"15.06408045","PERIOD":"95.592","ARG_OF_PERICENTER":"77.5118","MEAN_ELEMENT_THEORY":"SGP4","INCLINATION":"53.0554","REV_AT_EPOCH":"9028","NORAD_CAT_ID":"45395","SEMIMAJOR_AXIS":"6925.324","TLE_LINE1":"1 45395U 20019AM  21309.62939691  .00002656  00000-0  19709-3 0  9996","APOAPSIS":"548.091","DECAY_DATE":null,"OBJECT_NAME":"STARLINK-1297","CENTER_NAME":"EARTH","LAUNCH_DATE":"2020-03-18","GP_ID":"189043621","PERIAPSIS":"546.287","TIME_SYSTEM":"UTC","OBJECT_ID":"2020-019AM","SITE":"AFETR","COUNTRY_CODE":"US","MEAN_ANOMALY":"282.6017","RCS_SIZE":"LARGE","FILE":"3204412","BSTAR":"0.00019709000000","CLASSIFICATION_TYPE":"U"},{"GP_ID":"189044381","LAUNCH_DATE":"2020-03-18","CENTER_NAME":"EARTH","OBJECT_NAME":"STARLINK-1303","DECAY_DATE":null,"TLE_LINE1":"1 45396U 20019AN  21309.81002405  .00001224  00000-0  10109-3 0  9997","APOAPSIS":"548.160","SEMIMAJOR_AXIS":"6925.378","CLASSIFICATION_TYPE":"U","BSTAR":"0.00010109000000","RCS_SIZE":"LARGE","FILE":"3204412","MEAN_ANOMALY":"279.6365","SITE":"AFETR","COUNTRY_CODE":"US","TIME_SYSTEM":"UTC","OBJECT_ID":"2020-019AN","PERIAPSIS":"546.326","TLE_LINE2":"2 45396  53.0549  61.4231 0001324  80.4774 279.6365 15.06390299 90845","OBJECT_TYPE":"PAYLOAD","ECCENTRICITY":"0.00013240","EPOCH":"2021-11-05T19:26:26.077920","MEAN_MOTION_DDOT":"0.0000000000000","REF_FRAME":"TEME","MEAN_MOTION_DOT":"0.00001224","EPHEMERIS_TYPE":"0","ELEMENT_SET_NO":"999","NORAD_CAT_ID":"45396","REV_AT_EPOCH":"9084","INCLINATION":"53.0549","MEAN_ELEMENT_THEORY":"SGP4","PERIOD":"95.593","ARG_OF_PERICENTER":"80.4774","MEAN_MOTION":"15.06390299","RA_OF_ASC_NODE":"61.4231"},{"BSTAR":"0.00036826000000","CLASSIFICATION_TYPE":"U","RCS_SIZE":"LARGE","FILE":"3204412","MEAN_ANOMALY":"274.7494","SITE":"AFETR","COUNTRY_CODE":"US","PERIAPSIS":"546.295","TIME_SYSTEM":"UTC","OBJECT_ID":"2020-019AP","LAUNCH_DATE":"2020-03-18","GP_ID":"189044608","OBJECT_NAME":"STARLINK-1307","CENTER_NAME":"EARTH","DECAY_DATE":null,"TLE_LINE1":"1 45397U 20019AP  21309.62202456  .00005211  00000-0  36826-3 0  9999","APOAPSIS":"548.015","SEMIMAJOR_AXIS":"6925.290","REV_AT_EPOCH":"9092","NORAD_CAT_ID":"45397","INCLINATION":"53.0545","MEAN_ELEMENT_THEORY":"SGP4","RA_OF_ASC_NODE":"62.2671","MEAN_MOTION":"15.06419086","PERIOD":"95.591","ARG_OF_PERICENTER":"85.3637","ECCENTRICITY":"0.00012420","EPOCH":"2021-11-05T14:55:42.921984","TLE_LINE2":"2 45397  53.0545  62.2671 0001242  85.3637 274.7494 15.06419086 90924","OBJECT_TYPE":"PAYLOAD","MEAN_MOTION_DOT":"0.00005211","EPHEMERIS_TYPE":"0","MEAN_MOTION_DDOT":"0.0000000000000","REF_FRAME":"TEME","ELEMENT_SET_NO":"999"}];
